#dP2021 12  2  0  0  0.00000000      96 __u+U ITR00 FIT  IAC
## 2186 345600.00000000   900.00000000 59550 0.0000000000000
+  126   C01C02C03C04C05C06C07C08C09C10C11C12C13C14C16C19C20
+        C21C22C23C24C25C26C27C28C29C30C32C33C34C35C36C37C38
+        C39C40C41C42C43C44C45C46C60E01E02E03E04E05E07E08E09
+        E11E12E13E14E15E18E19E21E24E25E26E27E30E31E33E36G01
+        G02G03G04G05G06G07G08G09G10G12G13G14G15G16G17G18G19
+        G20G21G22G23G24G25G26G27G28G29G30G31G32J01J02J03J07
+        R01R02R03R04R05R06R07R08R09R10R11R12R13R14R15R16R17
+        R18R19R20R21R22R23R24  0  0  0  0  0  0  0  0  0  0
++        13 12 13 13 13  9  9 10  9  8  8  8 10  8  9  7  7
++         7  7  7  7  7  7  7  7  7  7  7  7  7  7  7  7  8
++         8  8  7  7  7  7  7  8 13  4  4  5  4  5  4  4  4
++         4  4  4  5  4  4  4  4  4  3  5  4  4  4  5  4  3
++         4  4  4  3  4  3  3  4  3  4  3  3  4  4  4  3  4
++         4  4  4  3  4  4  4  3  5  4  3  4  4  8  8  8 14
++         6  6  6  6  6 13  6  6  6 13  7  6  7  6  5  7  6
++         6  7  7  6  7 13  5  0  0  0  0  0  0  0  0  0  0
%c M  cc GPS ccc cccc cccc cccc cccc ccccc ccccc ccccc ccccc
%c cc cc ccc ccc cccc cccc cccc cccc ccccc ccccc ccccc ccccc
%f  0.0000000  0.000000000  0.00000000000  0.000000000000000
%f  0.0000000  0.000000000  0.00000000000  0.000000000000000
%i    0    0    0    0      0      0      0      0         0
%i    0    0    0    0      0      0      0      0         0
/* INFORMATION & ANALYSIS CENTER (IAC)            RAPID DATA
/* S/V CLOCKS ARE ALIGNED TO GNSS TIME                      
/* G:C1WC2W R:C1PC2P E:C1XC5X C:C2IC6I J:C1CC2S             
/* PCV:IGS14_2178 OL/AL:FES2004  NONE     YN ORB:CoN CLK:CoN
*  2021 12 02 18 30  0.00000000
PC01 -34314.322189  24491.763006    299.793746   -386.323236
PC02   4282.747799  41931.176501   -195.457340    843.048649
PC03 -14753.661326  39460.495819    647.249031    286.202102
PC04 -39607.767336  14402.969618    583.153509    288.890900
PC05  21869.289773  36034.997494   -542.100945    320.906176
PC06  -8402.192147  23560.240098 -33983.093226    575.469933
PC07 -15673.108522  38043.907572   8962.098975    168.707598
PC08   1142.909069  35763.854603  22441.613757    -56.300414
PC09  -1120.101551  24529.219692 -33936.163468   -315.568380
PC10  -8279.078627  37903.365568  16214.497499    136.017339
PC11  -9080.881726  13468.700384  22755.279935   -357.347160
PC12 -24631.169752   3961.226563  12524.891831   -422.887019
PC13   4730.826293  38007.463821  18071.025396   -190.334901
PC14 -13716.304223  23515.520945  -6003.087917    511.514180
PC16 -14530.392894  21391.719815 -33219.538360     10.107224
PC19   5865.029189 -23119.484621  14510.567650    927.721144
PC20  18425.573794 -20908.453944  -1646.473036   -792.364473
PC21 -20665.307619   5941.100949  17788.476960   -942.556366
PC22 -10531.739786 -12048.315122  22856.034554   -969.990105
PC23  14900.694011  21891.629147   8823.630840   -963.281463
PC24 -10640.262385  14826.354687 -21130.091572   -955.133399
PC25   4337.869987  26364.438209  -8105.529687   -815.910137
PC26 -17735.700721  -3368.196789 -21280.207047    813.469476
PC27  27531.521384   2118.535599  -4004.595623    638.883958
PC28  20900.962886  12990.740505  13171.278066      4.247215
PC29  -2484.478986 -16171.216038 -22609.161193    482.273664
PC30  18260.220166 -10324.235240 -18396.738901    487.772016
PC32  20611.995144  -6046.561877 -17807.680514   -958.360154
PC33  -5803.744442  23176.872377 -14413.807896   -964.835444
PC34 -17513.270128  10771.549956  18872.027526   -523.638960
PC35 -20949.134448 -12520.032229 -13563.148671     27.895312
PC36  -3363.475856 -26355.274232   8539.353246   -820.349840
PC37  17828.878768   5000.643176  20900.281655   -903.417337
PC38  -6663.566484  30862.630403  28051.673477    193.745797
PC39 -19104.649915  20644.617228 -31477.118019     34.208304
PC40 -23313.723191  34552.317946   5864.966738    223.006586
PC41  10282.112598  12365.622481 -22764.244679   -915.502587
PC42 -18827.905791  20431.234178   2593.272360   -936.911399
PC43   1662.555562  16247.662986  22621.602777   -956.958403
PC44 -27637.767832  -1307.144041   3752.905701    485.206163
PC45 -14957.226828 -21736.021369  -9039.395857    616.474710
PC46   9753.564672 -15910.274348  20737.283442    -39.603116
PC60   7290.770435  41496.299552   1655.672773     -0.386333
PE01 -14818.822769  18335.238083 -17903.553944   -529.614705
PE02  14774.586443 -18438.005694  17818.724890    264.228363
PE03  24862.120581 -14849.236410   6141.267201   -502.197736
PE04  -8529.316013  19329.161930 -20736.163764   -912.290177
PE05  26872.513345  -1563.555092 -12317.458651   -229.474378
PE07 -13215.467183 -12459.363073  23367.626945   -613.357810
PE08   8076.149723 -19217.707087  21009.756424   5895.372953
PE09  13436.526444  12148.949408 -23417.795789   5443.486471
PE11  19950.932495  20803.511890   6716.698558   4970.856409
PE12   2272.363989  19743.080699  21937.817699   4880.592618
PE13 -19651.086231 -20896.254388  -7290.482023    424.290110
PE14  26482.558812   1943.523155   7911.504844  -1660.834077
PE15  -2290.941839 -19643.358077 -22011.850341    777.564888
PE18 -19721.633778 -12020.940519 -18114.215052  -1826.301181
PE19 -26049.567076  13522.798523  -3868.199125    442.290734
PE21 -16463.925450  -2065.369641 -24509.252125   -702.989108
PE24   8002.853802  23254.750908  16486.843761  -1258.320752
PE25  16427.527410   2371.525433  24518.299042   -555.551290
PE26 -25255.455235  -9048.387100  12506.128518   -523.919524
PE27  -8745.175309 -22342.696361 -17316.606837   -178.018487
PE30   4942.795381 -29150.408014   1136.623426    -77.760379
PE31  -4044.796510  29329.174209     14.068894   -488.839620
PE33 -16358.565880   6823.095305  23716.027054   -461.885768
PE36  25366.767056   9870.599576 -11624.302664   -298.332057
PG01 -21044.175719 -12314.847653  10661.696017    494.729648
PG02  12838.261751  21142.459344  10206.138708   -644.288019
PG03 -14389.853645  -3975.693799  21862.986873    -29.519916
PG04 -24829.327541  -1618.510065   9397.972575   -200.290494
PG05   7729.340087  18755.254022 -17228.725892    -63.063646
PG06  -1191.320765  17784.427795  19737.229198    132.518060
PG07 -17115.152675   2506.217681 -19911.457719    285.918801
PG08 -17785.067726  -8279.114009 -18069.691514    -46.531339
PG09 -25363.679377   7787.367023  -1613.177571   -361.083981
PG10  11636.449098 -22584.265175  -7075.802448   -259.504599
PG12  13246.042703   6910.597770  21710.820503   -134.959046
PG13  10035.619394  13375.825319 -20824.510487    223.463739
PG14 -12890.113753  22042.394874  -7202.054833    -48.596022
PG15  19097.379696   6938.752734 -17671.109640   -102.108112
PG16  -3260.849652 -21064.641118 -15792.558852   -433.986106
PG17 -18227.293076  13162.198008  14603.590269    541.977932
PG18  16047.164376  -3620.958793 -20878.185792    286.182343
PG19 -10356.447082  14492.339724  19381.347787     86.998592
PG20   2316.837155  25414.407172  -7850.550696    517.829110
PG21 -21205.455694 -16358.648866   2933.389133    152.680374
PG22 -12463.749428 -12843.686896  19856.884593   -450.797282
PG23  15488.347251 -13817.773544 -16540.317016     26.256740
PG24  21950.590828  14058.147266   5849.498941    272.191709
PG25  16212.661714  -5910.206916  19844.534584    249.710117
PG26   4188.893903 -25922.723082  -2756.783625    161.153050
PG27  -7197.883931 -13564.750483 -21889.931641   -226.307271
PG28  -9226.634210  25027.269941   1064.029334    451.102446
PG29  26346.681125  -2732.347857   2330.060815   -448.651087
PG30  -9523.596901  12708.049264 -21202.176344   -496.191592
PG31   -182.522278 -19196.600816  18033.306471   -153.090971
PG32  14018.485489 -15435.111901  16461.834218    -29.677173
PJ01 -36629.174252  20749.750189   2411.601207    112.918707
PJ02 -21134.516599  30558.307110 -15268.026242     -0.244292
PJ03 -28484.348009  23209.158496  25849.355138     -7.992492
PJ07 -25390.573394  33666.270237    -36.592797     -0.026632
PR01   7516.121526   8129.107188 -22986.213923     88.929468
PR02  19734.548258  -7793.178166 -14073.280008    501.999915
PR03  18475.556524 -17325.285233   2780.026833     47.454347
PR04   7051.603193 -16821.011700  17844.836865    116.992085
PR05  -8333.376023  -7100.734496  23043.164123     83.508137
PR06 -19843.083385   9090.235561  13208.969206    -19.163112
PR07 -18288.332478  17495.295598  -3366.479262    -39.530934
PR08  -6969.616572  16896.540879 -17759.584571    -62.319333
PR09 -11680.744506  -1614.294881 -22608.343237     26.663356
PR10  -6383.277603  15447.313668 -19306.529006    -77.604588
PR11   2800.029622  24964.084905  -4393.649721     49.517750
PR12  10125.127213  19111.127926  13570.063348    283.271121
PR13  11533.402402   2729.700378  22572.854694    -64.294624
PR14   6011.322591 -16487.408985  18528.503331     71.640220
PR15  -2771.800252 -25081.514687   3737.286094     99.849765
PR16 -11001.940961 -17744.321718 -14577.723240    -26.058140
PR17  13406.876530  -5270.558814 -21048.569325    480.081365
PR18  -3863.889066 -12049.081284 -22136.315126     99.155378
PR19 -17962.512988 -13182.150610 -12404.759294   -169.199839
PR20 -23633.630175  -5936.509502   7616.203541    -60.453249
PR21 -12091.179656   5910.236271  21667.288306   -259.142852
PR22   4677.765075  12218.740318  21869.788528   -148.917526
PR23  21850.729179  11421.026939   6545.972341    -21.979057
PR24  23660.688512   4937.563701  -8161.440666     69.486246
EOF
